*******************************************************************************
JPL/HORIZONS                95 Arethusa (A867 WA)          2023-Sep-04 11:04:21
Rec #:      95 (+COV) Soln.date: 2023-Aug-25_02:17:06   # obs: 4011 (1872-2023)
 
IAU76/J2000 helio. ecliptic osc. elements (au, days, deg., period=Julian yrs):
 
  EPOCH=  2457693.5 ! 2016-Nov-01.00 (TDB)         Residual RMS= .29128
   EC= .152451958380404    QR= 2.597547966257324   TP= 2458198.1273634983
   OM= 243.0367334632118   W=  154.1699164296128   IN= 12.99510648450608
   A= 3.064779621570028    MA= 267.3007984327351   ADIST= 3.532011276882733
   PER= 5.36546            N= .183698325           ANGMOM= .029762859
   DAN= 3.46966            DDN= 2.63234            L= 37.7849107
   B= 5.6226177            MOID= 1.61204004        TP= 2018-Mar-20.6273634983
 
Asteroid physical parameters (km, seconds, rotational period in hours):
   GM= n.a.                RAD= 73.9845            ROTPER= 8.705
   H= 8.04                 G= .150                 B-V= .711
                           ALBEDO= .058            STYP= Ch

ASTEROID comments: 
1: soln ref.= JPL#61, OCC=0
2: source=ORB
*******************************************************************************


*******************************************************************************
Ephemeris / API_USER Mon Sep  4 11:04:21 2023 Pasadena, USA      / Horizons
*******************************************************************************
Target body name: 95 Arethusa (A867 WA)           {source: JPL#61}
Center body name: Solar System Barycenter (0)     {source: DE441}
Center-site name: BODY CENTER
*******************************************************************************
Start time      : A.D. 2023-Aug-12 00:00:00.0000 TDB
Stop  time      : A.D. 2023-Aug-13 00:00:00.0000 TDB
Step-size       : 2880 minutes
*******************************************************************************
Center geodetic : 0.0, 0.0, 0.0                   {E-lon(deg),Lat(deg),Alt(km)}
Center cylindric: 0.0, 0.0, 0.0                   {E-lon(deg),Dxy(km),Dz(km)}
Center radii    : (undefined)
Small perturbers: Yes                             {source: SB441-N16}
Output units    : KM-S
Calendar mode   : Mixed Julian/Gregorian
Output type     : GEOMETRIC cartesian states
Output format   : 2 (position and velocity)
Reference frame : Ecliptic of J2000.0
*******************************************************************************
Initial IAU76/J2000 heliocentric ecliptic osculating elements (au, days, deg.):
  EPOCH=  2457693.5 ! 2016-Nov-01.00 (TDB)         Residual RMS= .29128        
   EC= .152451958380404    QR= 2.597547966257324   TP= 2458198.1273634983      
   OM= 243.0367334632118   W=  154.1699164296128   IN= 12.99510648450608       
  Equivalent ICRF heliocentric cartesian coordinates (au, au/d):
   X= 8.968598921433895E-01  Y=-2.936196578740283E+00  Z=-7.315010479443672E-01
  VX= 8.436435966266011E-03 VY= 3.393619362584835E-03 VZ= 2.877065822344884E-03
Asteroid physical parameters (km, seconds, rotational period in hours):        
   GM= n.a.                RAD= 73.9845            ROTPER= 8.705               
   H= 8.04                 G= .150                 B-V= .711                   
                           ALBEDO= .058            STYP= Ch                    
*******************************************************************************
JDTDB
   X     Y     Z
   VX    VY    VZ
*******************************************************************************
$$SOE
2460168.500000000 = A.D. 2023-Aug-12 00:00:00.0000 TDB 
 X = 2.918272679553596E+08 Y = 2.524557808757156E+08 Z = 3.375607118884468E+07
 VX=-1.225477791402338E+01 VY= 1.504839099106691E+01 VZ=-4.104185264382957E+00
$$EOE
*******************************************************************************
 
TIME

  Barycentric Dynamical Time ("TDB" or T_eph) output was requested. This
continuous coordinate time is equivalent to the relativistic proper time
of a clock at rest in a reference frame co-moving with the solar system
barycenter but outside the system's gravity well. It is the independent
variable in the solar system relativistic equations of motion.

  TDB runs at a uniform rate of one SI second per second and is independent
of irregularities in Earth's rotation.
 
CALENDAR SYSTEM

  Mixed calendar mode was active such that calendar dates after AD 1582-Oct-15
(if any) are in the modern Gregorian system. Dates prior to 1582-Oct-5 (if any)
are in the Julian calendar system, which is automatically extended for dates
prior to its adoption on 45-Jan-1 BC.  The Julian calendar is useful for
matching historical dates. The Gregorian calendar more accurately corresponds
to the Earth's orbital motion and seasons. A "Gregorian-only" calendar mode is
available if such physical events are the primary interest.

REFERENCE FRAME AND COORDINATES

  Ecliptic at the standard reference epoch

    Reference epoch: J2000.0
    X-Y plane: adopted Earth orbital plane at the reference epoch
               Note: IAU76 obliquity of 84381.448 arcseconds wrt ICRF X-Y plane
    X-axis   : ICRF
    Z-axis   : perpendicular to the X-Y plane in the directional (+ or -) sense
               of Earth's north pole at the reference epoch.

  Symbol meaning:

    JDTDB    Julian Day Number, Barycentric Dynamical Time
      X      X-component of position vector (km)
      Y      Y-component of position vector (km)
      Z      Z-component of position vector (km)
      VX     X-component of velocity vector (km/sec)                           
      VY     Y-component of velocity vector (km/sec)                           
      VZ     Z-component of velocity vector (km/sec)                           

ABERRATIONS AND CORRECTIONS

 Geometric state vectors have NO corrections or aberrations applied.

Computations by ...

    Solar System Dynamics Group, Horizons On-Line Ephemeris System
    4800 Oak Grove Drive, Jet Propulsion Laboratory
    Pasadena, CA  91109   USA

    General site: https://ssd.jpl.nasa.gov/
    Mailing list: https://ssd.jpl.nasa.gov/email_list.html
    System news : https://ssd.jpl.nasa.gov/horizons/news.html
    User Guide  : https://ssd.jpl.nasa.gov/horizons/manual.html
    Connect     : browser        https://ssd.jpl.nasa.gov/horizons/app.html#/x
                  API            https://ssd-api.jpl.nasa.gov/doc/horizons.html
                  command-line   telnet ssd.jpl.nasa.gov 6775
                  e-mail/batch   https://ssd.jpl.nasa.gov/ftp/ssd/hrzn_batch.txt
                  scripts        https://ssd.jpl.nasa.gov/ftp/ssd/SCRIPTS
    Author      : Jon.D.Giorgini@jpl.nasa.gov
*******************************************************************************
